[{"OBJECT_NAME":"ONEWEB-0517","OBJECT_ID":"2022-138Y","EPOCH":"2025-10-12T04:56:17.429856","MEAN_MOTION":13.1972867,"ECCENTRICITY":0.00016624,"INCLINATION":87.9282,"RA_OF_ASC_NODE":354.286,"ARG_OF_PERICENTER":92.3808,"MEAN_ANOMALY":267.7516,"EPHEMERIS_TYPE":0,"CLASSIFICATION_TYPE":"U","NORAD_CAT_ID":54135,"ELEMENT_SET_NO":999,"REV_AT_EPOCH":14412,"BSTAR":0.00025493026,"MEAN_MOTION_DOT":1.15e-6,"MEAN_MOTION_DDOT":0},{"OBJECT_NAME":"ONEWEB-0518","OBJECT_ID":"2022-138Z","EPOCH":"2025-10-12T05:23:35.050272","MEAN_MOTION":13.19724633,"ECCENTRICITY":0.00017658,"INCLINATION":87.9262,"RA_OF_ASC_NODE":354.3148,"ARG_OF_PERICENTER":104.6393,"MEAN_ANOMALY":255.4935,"EPHEMERIS_TYPE":0,"CLASSIFICATION_TYPE":"U","NORAD_CAT_ID":54136,"ELEMENT_SET_NO":999,"REV_AT_EPOCH":14412,"BSTAR":-0.00049939459,"MEAN_MOTION_DOT":-1.87e-6,"MEAN_MOTION_DDOT":0},{"OBJECT_NAME":"ONEWEB-0519","OBJECT_ID":"2022-138AA","EPOCH":"2025-10-12T05:59:58.410240","MEAN_MOTION":13.19728607,"ECCENTRICITY":0.00016585,"INCLINATION":87.9277,"RA_OF_ASC_NODE":354.2688,"ARG_OF_PERICENTER":95.0281,"MEAN_ANOMALY":265.1041,"EPHEMERIS_TYPE":0,"CLASSIFICATION_TYPE":"U","NORAD_CAT_ID":54137,"ELEMENT_SET_NO":999,"REV_AT_EPOCH":14413,"BSTAR":4.3468778e-5,"MEAN_MOTION_DOT":3.0e-7,"MEAN_MOTION_DDOT":0},{"OBJECT_NAME":"ONEWEB-0520","OBJECT_ID":"2022-138AB","EPOCH":"2025-10-12T05:00:50.512608","MEAN_MOTION":13.19723991,"ECCENTRICITY":0.00017564,"INCLINATION":87.9281,"RA_OF_ASC_NODE":354.281,"ARG_OF_PERICENTER":110.0602,"MEAN_ANOMALY":250.072,"EPHEMERIS_TYPE":0,"CLASSIFICATION_TYPE":"U","NORAD_CAT_ID":54138,"ELEMENT_SET_NO":999,"REV_AT_EPOCH":14411,"BSTAR":7.288753e-5,"MEAN_MOTION_DOT":4.2e-7,"MEAN_MOTION_DDOT":0},{"OBJECT_NAME":"ONEWEB-0521","OBJECT_ID":"2022-138AC","EPOCH":"2025-10-12T05:48:37.646496","MEAN_MOTION":13.1972708,"ECCENTRICITY":0.00017635,"INCLINATION":87.9278,"RA_OF_ASC_NODE":354.2601,"ARG_OF_PERICENTER":92.0022,"MEAN_ANOMALY":268.1312,"EPHEMERIS_TYPE":0,"CLASSIFICATION_TYPE":"U","NORAD_CAT_ID":54139,"ELEMENT_SET_NO":999,"REV_AT_EPOCH":14406,"BSTAR":-1.4096799e-5,"MEAN_MOTION_DOT":7.0e-8,"MEAN_MOTION_DDOT":0},{"OBJECT_NAME":"ONEWEB-0522","OBJECT_ID":"2022-138AD","EPOCH":"2025-10-12T05:19:04.093824","MEAN_MOTION":13.19726216,"ECCENTRICITY":0.00017725,"INCLINATION":87.9282,"RA_OF_ASC_NODE":354.266,"ARG_OF_PERICENTER":105.5394,"MEAN_ANOMALY":254.5934,"EPHEMERIS_TYPE":0,"CLASSIFICATION_TYPE":"U","NORAD_CAT_ID":54140,"ELEMENT_SET_NO":999,"REV_AT_EPOCH":14410,"BSTAR":0.00037191566,"MEAN_MOTION_DOT":1.62e-6,"MEAN_MOTION_DDOT":0},{"OBJECT_NAME":"ONEWEB-0523","OBJECT_ID":"2022-138AE","EPOCH":"2025-10-12T03:42:07.590528","MEAN_MOTION":13.20774199,"ECCENTRICITY":0.00025525,"INCLINATION":87.9218,"RA_OF_ASC_NODE":323.9076,"ARG_OF_PERICENTER":81.5925,"MEAN_ANOMALY":278.5498,"EPHEMERIS_TYPE":0,"CLASSIFICATION_TYPE":"U","NORAD_CAT_ID":54141,"ELEMENT_SET_NO":999,"REV_AT_EPOCH":14656,"BSTAR":-2.5092419e-5,"MEAN_MOTION_DOT":3.0e-8,"MEAN_MOTION_DDOT":0},{"OBJECT_NAME":"ONEWEB-0524","OBJECT_ID":"2022-138AF","EPOCH":"2025-10-12T03:26:14.821440","MEAN_MOTION":13.20771733,"ECCENTRICITY":0.00028335,"INCLINATION":87.9219,"RA_OF_ASC_NODE":323.9108,"ARG_OF_PERICENTER":99.952,"MEAN_ANOMALY":260.1933,"EPHEMERIS_TYPE":0,"CLASSIFICATION_TYPE":"U","NORAD_CAT_ID":54142,"ELEMENT_SET_NO":999,"REV_AT_EPOCH":14656,"BSTAR":3.2619632e-5,"MEAN_MOTION_DOT":2.6e-7,"MEAN_MOTION_DDOT":0},{"OBJECT_NAME":"ONEWEB-0525","OBJECT_ID":"2022-138AG","EPOCH":"2025-10-12T05:46:20.671392","MEAN_MOTION":13.1972679,"ECCENTRICITY":0.00017535,"INCLINATION":87.9278,"RA_OF_ASC_NODE":354.2834,"ARG_OF_PERICENTER":109.6994,"MEAN_ANOMALY":250.4328,"EPHEMERIS_TYPE":0,"CLASSIFICATION_TYPE":"U","NORAD_CAT_ID":54143,"ELEMENT_SET_NO":999,"REV_AT_EPOCH":14412,"BSTAR":2.4215757e-5,"MEAN_MOTION_DOT":2.3e-7,"MEAN_MOTION_DDOT":0},{"OBJECT_NAME":"ONEWEB-0526","OBJECT_ID":"2022-138AH","EPOCH":"2025-10-12T06:34:05.992608","MEAN_MOTION":13.1972334,"ECCENTRICITY":0.00018806,"INCLINATION":87.9278,"RA_OF_ASC_NODE":354.2634,"ARG_OF_PERICENTER":103.0171,"MEAN_ANOMALY":257.1171,"EPHEMERIS_TYPE":0,"CLASSIFICATION_TYPE":"U","NORAD_CAT_ID":54144,"ELEMENT_SET_NO":999,"REV_AT_EPOCH":14410,"BSTAR":-0.00011831826,"MEAN_MOTION_DOT":-3.4e-7,"MEAN_MOTION_DDOT":0},{"OBJECT_NAME":"ONEWEB-0529","OBJECT_ID":"2022-138AJ","EPOCH":"2025-10-12T04:49:28.614432","MEAN_MOTION":13.19727892,"ECCENTRICITY":0.00017941,"INCLINATION":87.9263,"RA_OF_ASC_NODE":354.3145,"ARG_OF_PERICENTER":107.7719,"MEAN_ANOMALY":252.361,"EPHEMERIS_TYPE":0,"CLASSIFICATION_TYPE":"U","NORAD_CAT_ID":54145,"ELEMENT_SET_NO":999,"REV_AT_EPOCH":14411,"BSTAR":0.00011984768,"MEAN_MOTION_DOT":6.1e-7,"MEAN_MOTION_DDOT":0},{"OBJECT_NAME":"ONEWEB-0531","OBJECT_ID":"2022-138AK","EPOCH":"2025-10-12T03:05:46.859712","MEAN_MOTION":13.20770802,"ECCENTRICITY":0.00027282,"INCLINATION":87.9219,"RA_OF_ASC_NODE":323.9041,"ARG_OF_PERICENTER":86.0159,"MEAN_ANOMALY":274.1286,"EPHEMERIS_TYPE":0,"CLASSIFICATION_TYPE":"U","NORAD_CAT_ID":54146,"ELEMENT_SET_NO":999,"REV_AT_EPOCH":14656,"BSTAR":7.075509e-5,"MEAN_MOTION_DOT":4.2e-7,"MEAN_MOTION_DDOT":0},{"OBJECT_NAME":"ONEWEB-0535","OBJECT_ID":"2022-138AL","EPOCH":"2025-10-12T05:37:14.714976","MEAN_MOTION":13.19723771,"ECCENTRICITY":0.00020832,"INCLINATION":87.9275,"RA_OF_ASC_NODE":354.2666,"ARG_OF_PERICENTER":90.3376,"MEAN_ANOMALY":269.7996,"EPHEMERIS_TYPE":0,"CLASSIFICATION_TYPE":"U","NORAD_CAT_ID":54147,"ELEMENT_SET_NO":999,"REV_AT_EPOCH":14413,"BSTAR":0.00022846466,"MEAN_MOTION_DOT":1.04e-6,"MEAN_MOTION_DDOT":0},{"OBJECT_NAME":"ONEWEB-0536","OBJECT_ID":"2022-138AM","EPOCH":"2025-10-12T02:47:34.592640","MEAN_MOTION":13.20773785,"ECCENTRICITY":0.00029251,"INCLINATION":87.9222,"RA_OF_ASC_NODE":323.9541,"ARG_OF_PERICENTER":89.5046,"MEAN_ANOMALY":270.6423,"EPHEMERIS_TYPE":0,"CLASSIFICATION_TYPE":"U","NORAD_CAT_ID":54148,"ELEMENT_SET_NO":999,"REV_AT_EPOCH":14655,"BSTAR":3.8662249e-5,"MEAN_MOTION_DOT":2.9e-7,"MEAN_MOTION_DDOT":0},{"OBJECT_NAME":"ONEWEB-0527","OBJECT_ID":"2022-166A","EPOCH":"2025-10-12T06:22:15.998016","MEAN_MOTION":13.21887161,"ECCENTRICITY":0.00019179,"INCLINATION":87.9167,"RA_OF_ASC_NODE":293.4704,"ARG_OF_PERICENTER":93.4484,"MEAN_ANOMALY":266.687,"EPHEMERIS_TYPE":0,"CLASSIFICATION_TYPE":"U","NORAD_CAT_ID":54642,"ELEMENT_SET_NO":999,"REV_AT_EPOCH":13878,"BSTAR":6.005247e-5,"MEAN_MOTION_DOT":3.8e-7,"MEAN_MOTION_DDOT":0},{"OBJECT_NAME":"ONEWEB-0528","OBJECT_ID":"2022-166B","EPOCH":"2025-10-12T06:31:27.800256","MEAN_MOTION":13.21860572,"ECCENTRICITY":0.00018818,"INCLINATION":87.917,"RA_OF_ASC_NODE":293.4724,"ARG_OF_PERICENTER":93.9412,"MEAN_ANOMALY":266.1937,"EPHEMERIS_TYPE":0,"CLASSIFICATION_TYPE":"U","NORAD_CAT_ID":54643,"ELEMENT_SET_NO":999,"REV_AT_EPOCH":13879,"BSTAR":-1.651062e-5,"MEAN_MOTION_DOT":6.0e-8,"MEAN_MOTION_DDOT":0}]
