ONEWEB-0517             
1 54135U 22138Y   25285.20575729  .00000115  00000+0  25493-3 0  9995
2 54135  87.9282 354.2860 0001662  92.3808 267.7516 13.19728670144129
ONEWEB-0518             
1 54136U 22138Z   25285.22471123 -.00000187  00000+0 -49939-3 0  9993
2 54136  87.9262 354.3148 0001765 104.6393 255.4935 13.19724633144122
ONEWEB-0519             
1 54137U 22138AA  25285.24998160  .00000030  00000+0  43469-4 0  9999
2 54137  87.9277 354.2688 0001658  95.0281 265.1041 13.19728607144139
ONEWEB-0520             
1 54138U 22138AB  25285.20891797  .00000042  00000+0  72888-4 0  9994
2 54138  87.9281 354.2810 0001756 110.0602 250.0720 13.19723991144112
ONEWEB-0521             
1 54139U 22138AC  25285.24210239  .00000007  00000+0 -14097-4 0  9995
2 54139  87.9278 354.2601 0001763  92.0022 268.1312 13.19727080144064
ONEWEB-0522             
1 54140U 22138AD  25285.22157516  .00000162  00000+0  37192-3 0  9994
2 54140  87.9282 354.2660 0001772 105.5394 254.5934 13.19726216144102
ONEWEB-0523             
1 54141U 22138AE  25285.15425452  .00000003  00000+0 -25092-4 0  9996
2 54141  87.9218 323.9076 0002552  81.5925 278.5498 13.20774199146564
ONEWEB-0524             
1 54142U 22138AF  25285.14322710  .00000026  00000+0  32620-4 0  9998
2 54142  87.9219 323.9108 0002833  99.9520 260.1933 13.20771733146560
ONEWEB-0525             
1 54143U 22138AG  25285.24051703  .00000023  00000+0  24216-4 0  9990
2 54143  87.9278 354.2834 0001753 109.6994 250.4328 13.19726790144124
ONEWEB-0526             
1 54144U 22138AH  25285.27368047 -.00000034  00000+0 -11832-3 0  9999
2 54144  87.9278 354.2634 0001880 103.0171 257.1171 13.19723340144105
ONEWEB-0529             
1 54145U 22138AJ  25285.20102563  .00000061  00000+0  11985-3 0  9999
2 54145  87.9263 354.3145 0001794 107.7719 252.3610 13.19727892144113
ONEWEB-0531             
1 54146U 22138AK  25285.12901458  .00000042  00000+0  70755-4 0  9991
2 54146  87.9219 323.9041 0002728  86.0159 274.1286 13.20770802146560
ONEWEB-0535             
1 54147U 22138AL  25285.23419809  .00000104  00000+0  22846-3 0  9994
2 54147  87.9275 354.2666 0002083  90.3376 269.7996 13.19723771144136
ONEWEB-0536             
1 54148U 22138AM  25285.11637260  .00000029  00000+0  38662-4 0  9995
2 54148  87.9222 323.9541 0002925  89.5046 270.6423 13.20773785146559
ONEWEB-0527             
1 54642U 22166A   25285.26546294  .00000038  00000+0  60052-4 0  9995
2 54642  87.9167 293.4704 0001917  93.4484 266.6870 13.21887161138780
ONEWEB-0528             
1 54643U 22166B   25285.27184954  .00000006  00000+0 -16511-4 0  9995
2 54643  87.9170 293.4724 0001881  93.9412 266.1937 13.21860572138790
